SL-3 R/B                
1 13154U 82039B   25316.94057222  .00006931  00000+0  42844-3 0  9997
2 13154  81.1797 350.3625 0032157 350.1890   9.8703 15.09283759364028
SL-3 R/B                
1 13403U 82079B   25316.99111476  .00013411  00000+0  56175-3 0  9998
2 13403  81.1470 330.7197 0025268 197.0482 162.9905 15.23130190359923
SL-14 R/B               
1 13553U 82092B   25316.33283921  .00001417  00000+0  15704-3 0  9998
2 13553  82.5681 251.1462 0019754 335.0480 140.5935 14.86505259311499
SL-3 R/B                
1 13819U 83010B   25316.93959502  .00026937  00000+0  61832-3 0  9992
2 13819  81.1029 144.9646 0018333  92.5684 267.7658 15.42385798339920
SL-3 R/B                
1 14208U 83075B   25316.94472686  .00021568  00000+0  62626-3 0  9997
2 14208  97.6109 312.4476 0021183 288.8493  71.0452 15.35291819312226
COSMOS 1536             
1 14699U 84013A   25316.50343139  .00018208  00000+0  79308-3 0  9998
2 14699  82.5467 224.1345 0014623 342.9617  17.1125 15.21998533254781
SL-14 R/B               
1 14820U 84027B   25316.85721701  .00001045  00000+0  11708-3 0  9993
2 14820  82.5428 354.5808 0018074   5.5866 354.5548 14.85829506230286
SL-8 R/B                
1 15483U 85006B   25316.75137657  .00000534  00000+0  18595-3 0  9990
2 15483  74.0433 116.3064 0017600  58.1986 313.1956 14.37693162137221
SL-12 R/B(2)            
1 15772U 85042D   25316.79964417  .00000137  00000+0  83268-4 0  9996
2 15772  71.1085 334.6738 0037252 305.3418 227.3261 14.21937227 97774
SL-14 R/B               
1 15945U 85069B   25316.94467585  .00001188  00000+0  13202-3 0  9995
2 15945  82.5247 134.7152 0017891 215.5773 144.4253 14.86272018155499
SL-16 R/B               
1 16182U 85097B   25316.64535604 -.00000018  00000+0  15161-4 0  9994
2 16182  71.0045  26.9600 0005254  67.9894  84.2042 14.16575941 70650
SL-14 R/B               
1 16496U 86006B   25316.88268317  .00001417  00000+0  14906-3 0  9991
2 16496  82.5290   9.6431 0075433 300.5115  58.8668 14.86611524131851
