CCSDS_OMM_VERS = 2.0
CREATION_DATE  = 
ORIGINATOR     = 

OBJECT_NAME    = SL-3 R/B
OBJECT_ID      = 1982-039B
CENTER_NAME    = EARTH
REF_FRAME      = TEME
TIME_SYSTEM    = UTC
MEAN_ELEMENT_THEORY = SGP/SGP4

EPOCH          = 2025-11-12T22:34:25.439808
MEAN_MOTION    = 15.09283759
ECCENTRICITY   = .00321573
INCLINATION    = 81.1797
RA_OF_ASC_NODE = 350.3625
ARG_OF_PERICENTER = 350.1890
MEAN_ANOMALY   = 9.8703

EPHEMERIS_TYPE = 0
CLASSIFICATION_TYPE = U
NORAD_CAT_ID   = 13154
ELEMENT_SET_NO = 999
REV_AT_EPOCH   = 36402
BSTAR          = .42844294E-3
MEAN_MOTION_DOT = .6931E-4
MEAN_MOTION_DDOT = 0

CCSDS_OMM_VERS = 2.0
CREATION_DATE  = 
ORIGINATOR     = 

OBJECT_NAME    = SL-3 R/B
OBJECT_ID      = 1982-079B
CENTER_NAME    = EARTH
REF_FRAME      = TEME
TIME_SYSTEM    = UTC
MEAN_ELEMENT_THEORY = SGP/SGP4

EPOCH          = 2025-11-12T23:47:12.315264
MEAN_MOTION    = 15.23130190
ECCENTRICITY   = .0025268
INCLINATION    = 81.1470
RA_OF_ASC_NODE = 330.7197
ARG_OF_PERICENTER = 197.0482
MEAN_ANOMALY   = 162.9905

EPHEMERIS_TYPE = 0
CLASSIFICATION_TYPE = U
NORAD_CAT_ID   = 13403
ELEMENT_SET_NO = 999
REV_AT_EPOCH   = 35992
BSTAR          = .56175033E-3
MEAN_MOTION_DOT = .13411E-3
MEAN_MOTION_DDOT = 0

CCSDS_OMM_VERS = 2.0
CREATION_DATE  = 
ORIGINATOR     = 

OBJECT_NAME    = SL-14 R/B
OBJECT_ID      = 1982-092B
CENTER_NAME    = EARTH
REF_FRAME      = TEME
TIME_SYSTEM    = UTC
MEAN_ELEMENT_THEORY = SGP/SGP4

EPOCH          = 2025-11-12T07:59:17.307744
MEAN_MOTION    = 14.86505259
ECCENTRICITY   = .00197542
INCLINATION    = 82.5681
RA_OF_ASC_NODE = 251.1462
ARG_OF_PERICENTER = 335.0480
MEAN_ANOMALY   = 140.5935

EPHEMERIS_TYPE = 0
CLASSIFICATION_TYPE = U
NORAD_CAT_ID   = 13553
ELEMENT_SET_NO = 999
REV_AT_EPOCH   = 31149
BSTAR          = .15704477E-3
MEAN_MOTION_DOT = .1417E-4
MEAN_MOTION_DDOT = 0

CCSDS_OMM_VERS = 2.0
CREATION_DATE  = 
ORIGINATOR     = 

OBJECT_NAME    = SL-3 R/B
OBJECT_ID      = 1983-010B
CENTER_NAME    = EARTH
REF_FRAME      = TEME
TIME_SYSTEM    = UTC
MEAN_ELEMENT_THEORY = SGP/SGP4

EPOCH          = 2025-11-12T22:33:01.009728
MEAN_MOTION    = 15.42385798
ECCENTRICITY   = .00183338
INCLINATION    = 81.1029
RA_OF_ASC_NODE = 144.9646
ARG_OF_PERICENTER = 92.5684
MEAN_ANOMALY   = 267.7658

EPHEMERIS_TYPE = 0
CLASSIFICATION_TYPE = U
NORAD_CAT_ID   = 13819
ELEMENT_SET_NO = 999
REV_AT_EPOCH   = 33992
BSTAR          = .61831958E-3
MEAN_MOTION_DOT = .26937E-3
MEAN_MOTION_DDOT = 0

CCSDS_OMM_VERS = 2.0
CREATION_DATE  = 
ORIGINATOR     = 

OBJECT_NAME    = SL-3 R/B
OBJECT_ID      = 1983-075B
CENTER_NAME    = EARTH
REF_FRAME      = TEME
TIME_SYSTEM    = UTC
MEAN_ELEMENT_THEORY = SGP/SGP4

EPOCH          = 2025-11-12T22:40:24.400704
MEAN_MOTION    = 15.35291819
ECCENTRICITY   = .00211838
INCLINATION    = 97.6109
RA_OF_ASC_NODE = 312.4476
ARG_OF_PERICENTER = 288.8493
MEAN_ANOMALY   = 71.0452

EPHEMERIS_TYPE = 0
CLASSIFICATION_TYPE = U
NORAD_CAT_ID   = 14208
ELEMENT_SET_NO = 999
REV_AT_EPOCH   = 31222
BSTAR          = .62626134E-3
MEAN_MOTION_DOT = .21568E-3
MEAN_MOTION_DDOT = 0

CCSDS_OMM_VERS = 2.0
CREATION_DATE  = 
ORIGINATOR     = 

OBJECT_NAME    = COSMOS 1536
OBJECT_ID      = 1984-013A
CENTER_NAME    = EARTH
REF_FRAME      = TEME
TIME_SYSTEM    = UTC
MEAN_ELEMENT_THEORY = SGP/SGP4

EPOCH          = 2025-11-12T12:04:56.472096
MEAN_MOTION    = 15.21998533
ECCENTRICITY   = .00146238
INCLINATION    = 82.5467
RA_OF_ASC_NODE = 224.1345
ARG_OF_PERICENTER = 342.9617
MEAN_ANOMALY   = 17.1125

EPHEMERIS_TYPE = 0
CLASSIFICATION_TYPE = U
NORAD_CAT_ID   = 14699
ELEMENT_SET_NO = 999
REV_AT_EPOCH   = 25478
BSTAR          = .79308134E-3
MEAN_MOTION_DOT = .18208E-3
MEAN_MOTION_DDOT = 0

CCSDS_OMM_VERS = 2.0
CREATION_DATE  = 
ORIGINATOR     = 

OBJECT_NAME    = SL-14 R/B
OBJECT_ID      = 1984-027B
CENTER_NAME    = EARTH
REF_FRAME      = TEME
TIME_SYSTEM    = UTC
MEAN_ELEMENT_THEORY = SGP/SGP4

EPOCH          = 2025-11-12T20:34:23.549664
MEAN_MOTION    = 14.85829506
ECCENTRICITY   = .00180747
INCLINATION    = 82.5428
RA_OF_ASC_NODE = 354.5808
ARG_OF_PERICENTER = 5.5866
MEAN_ANOMALY   = 354.5548

EPHEMERIS_TYPE = 0
CLASSIFICATION_TYPE = U
NORAD_CAT_ID   = 14820
ELEMENT_SET_NO = 999
REV_AT_EPOCH   = 23028
BSTAR          = .11708479E-3
MEAN_MOTION_DOT = .1045E-4
MEAN_MOTION_DDOT = 0

CCSDS_OMM_VERS = 2.0
CREATION_DATE  = 
ORIGINATOR     = 

OBJECT_NAME    = SL-8 R/B
OBJECT_ID      = 1985-006B
CENTER_NAME    = EARTH
REF_FRAME      = TEME
TIME_SYSTEM    = UTC
MEAN_ELEMENT_THEORY = SGP/SGP4

EPOCH          = 2025-11-12T18:01:58.935648
MEAN_MOTION    = 14.37693162
ECCENTRICITY   = .00176003
INCLINATION    = 74.0433
RA_OF_ASC_NODE = 116.3064
ARG_OF_PERICENTER = 58.1986
MEAN_ANOMALY   = 313.1956

EPHEMERIS_TYPE = 0
CLASSIFICATION_TYPE = U
NORAD_CAT_ID   = 15483
ELEMENT_SET_NO = 999
REV_AT_EPOCH   = 13722
BSTAR          = .18595238E-3
MEAN_MOTION_DOT = .534E-5
MEAN_MOTION_DDOT = 0

CCSDS_OMM_VERS = 2.0
CREATION_DATE  = 
ORIGINATOR     = 

OBJECT_NAME    = SL-12 R/B(2)
OBJECT_ID      = 1985-042D
CENTER_NAME    = EARTH
REF_FRAME      = TEME
TIME_SYSTEM    = UTC
MEAN_ELEMENT_THEORY = SGP/SGP4

EPOCH          = 2025-11-12T19:11:29.256288
MEAN_MOTION    = 14.21937227
ECCENTRICITY   = .00372527
INCLINATION    = 71.1085
RA_OF_ASC_NODE = 334.6738
ARG_OF_PERICENTER = 305.3418
MEAN_ANOMALY   = 227.3261

EPHEMERIS_TYPE = 0
CLASSIFICATION_TYPE = U
NORAD_CAT_ID   = 15772
ELEMENT_SET_NO = 999
REV_AT_EPOCH   = 9777
BSTAR          = .83267614E-4
MEAN_MOTION_DOT = .137E-5
MEAN_MOTION_DDOT = 0

CCSDS_OMM_VERS = 2.0
CREATION_DATE  = 
ORIGINATOR     = 

OBJECT_NAME    = SL-14 R/B
OBJECT_ID      = 1985-069B
CENTER_NAME    = EARTH
REF_FRAME      = TEME
TIME_SYSTEM    = UTC
MEAN_ELEMENT_THEORY = SGP/SGP4

EPOCH          = 2025-11-12T22:40:19.993440
MEAN_MOTION    = 14.86272018
ECCENTRICITY   = .00178912
INCLINATION    = 82.5247
RA_OF_ASC_NODE = 134.7152
ARG_OF_PERICENTER = 215.5773
MEAN_ANOMALY   = 144.4253

EPHEMERIS_TYPE = 0
CLASSIFICATION_TYPE = U
NORAD_CAT_ID   = 15945
ELEMENT_SET_NO = 999
REV_AT_EPOCH   = 15549
BSTAR          = .13202182E-3
MEAN_MOTION_DOT = .1188E-4
MEAN_MOTION_DDOT = 0

CCSDS_OMM_VERS = 2.0
CREATION_DATE  = 
ORIGINATOR     = 

OBJECT_NAME    = SL-16 R/B
OBJECT_ID      = 1985-097B
CENTER_NAME    = EARTH
REF_FRAME      = TEME
TIME_SYSTEM    = UTC
MEAN_ELEMENT_THEORY = SGP/SGP4

EPOCH          = 2025-11-12T15:29:18.761856
MEAN_MOTION    = 14.16575941
ECCENTRICITY   = .00052548
INCLINATION    = 71.0045
RA_OF_ASC_NODE = 26.9600
ARG_OF_PERICENTER = 67.9894
MEAN_ANOMALY   = 84.2042

EPHEMERIS_TYPE = 0
CLASSIFICATION_TYPE = U
NORAD_CAT_ID   = 16182
ELEMENT_SET_NO = 999
REV_AT_EPOCH   = 7065
BSTAR          = .15160682E-4
MEAN_MOTION_DOT = -.18E-6
MEAN_MOTION_DDOT = 0

CCSDS_OMM_VERS = 2.0
CREATION_DATE  = 
ORIGINATOR     = 

OBJECT_NAME    = SL-14 R/B
OBJECT_ID      = 1986-006B
CENTER_NAME    = EARTH
REF_FRAME      = TEME
TIME_SYSTEM    = UTC
MEAN_ELEMENT_THEORY = SGP/SGP4

EPOCH          = 2025-11-12T21:11:03.825888
MEAN_MOTION    = 14.86611524
ECCENTRICITY   = .00754334
INCLINATION    = 82.5290
RA_OF_ASC_NODE = 9.6431
ARG_OF_PERICENTER = 300.5115
MEAN_ANOMALY   = 58.8668

EPHEMERIS_TYPE = 0
CLASSIFICATION_TYPE = U
NORAD_CAT_ID   = 16496
ELEMENT_SET_NO = 999
REV_AT_EPOCH   = 13185
BSTAR          = .14905983E-3
MEAN_MOTION_DOT = .1417E-4
MEAN_MOTION_DDOT = 0

